OBJECT_NAME,OBJECT_ID,EPOCH,MEAN_MOTION,ECCENTRICITY,INCLINATION,RA_OF_ASC_NODE,ARG_OF_PERICENTER,MEAN_ANOMALY,EPHEMERIS_TYPE,CLASSIFICATION_TYPE,NORAD_CAT_ID,ELEMENT_SET_NO,REV_AT_EPOCH,BSTAR,MEAN_MOTION_DOT,MEAN_MOTION_DDOT
STARLINK-11107 [DTC],2024-088A,2026-07-05T04:54:53.651232,15.69729340,.00009556,53.1593,106.6568,160.6184,199.4871,0,U,59708,999,12471,.30889309E-4,.3158E-4,0
STARLINK-11088 [DTC],2024-088B,2026-07-04T19:30:48.838464,15.69800057,.0000753,53.1569,109.2014,69.7678,290.3421,0,U,59709,999,12466,.47687772E-3,.57804E-3,0
STARLINK-11092 [DTC],2024-088C,2026-07-04T19:23:45.108672,15.69726469,.00005919,53.1594,109.1677,323.5486,36.5491,0,U,59710,999,12466,.21050583E-4,.1965E-4,0
STARLINK-11082 [DTC],2024-088D,2026-07-04T19:16:41.499840,15.69717934,.00012929,53.1586,109.1372,58.3586,301.7558,0,U,59711,999,12466,.45839E-5,-.33E-6,0
STARLINK-11108 [DTC],2024-088E,2026-07-05T04:19:44.451840,15.69714223,.0000885,53.1585,107.2171,103.3906,256.7211,0,U,59712,999,12472,.630846E-6,-.512E-5,0
STARLINK-11100 [DTC],2024-088F,2026-07-04T19:02:32.916192,15.69736531,.00013813,53.1594,109.0706,96.5224,263.5951,0,U,59713,999,12466,.30777703E-4,.3145E-4,0
STARLINK-11094 [DTC],2024-088G,2026-07-05T04:05:36.771936,15.69738196,.00009152,53.1561,107.1603,76.7592,283.3528,0,U,59714,999,12472,.11519121E-3,.13405E-3,0
STARLINK-11101 [DTC],2024-088H,2026-07-05T03:51:28.769760,15.69718641,.000041,53.1592,107.0871,182.5881,177.5135,0,U,59715,999,12472,.10983424E-4,.744E-5,0
STARLINK-11099 [DTC],2024-088J,2026-07-04T01:59:57.844896,15.69666714,.00011638,53.1592,112.4552,129.5806,230.5315,0,U,59716,999,12455,.11648092E-4,.82E-5,0
STARLINK-11084 [DTC],2024-088K,2026-07-05T03:44:24.270144,15.69739147,.0001273,53.1584,107.0540,108.9647,251.1509,0,U,59717,999,12472,.7911092E-5,.371E-5,0
STARLINK-11103 [DTC],2024-088L,2026-07-05T03:37:20.893728,15.69725861,.00010731,53.1589,107.0244,83.6405,276.4735,0,U,59718,999,12472,.14981896E-4,.1228E-4,0
STARLINK-11096 [DTC],2024-088M,2026-07-05T04:47:58.716960,15.69743433,.00008213,53.1597,107.3457,69.7196,290.3910,0,U,59719,999,12472,.14457418E-4,.1166E-4,0
STARLINK-11095 [DTC],2024-088N,2026-07-04T12:13:28.051680,15.69698799,.00011629,53.1592,110.1276,76.8254,283.2894,0,U,59720,999,12462,.49792709E-4,.5445E-4,0
STARLINK-31834,2024-088P,2026-07-05T07:32:26.785824,15.31719310,.00009102,53.1577,313.3728,90.8637,269.2469,0,U,59721,999,12187,.15723044E-3,.452E-4,0
STARLINK-31843,2024-088Q,2026-07-04T19:07:29.013312,15.31876211,.00012419,53.1597,315.8295,146.0313,214.0768,0,U,59722,999,12161,.20053365E-2,.62733E-3,0
STARLINK-31766,2024-088R,2026-07-04T08:36:04.196160,15.30194307,.00009489,53.1618,318.0679,108.0662,252.0443,0,U,59723,999,12154,.15285737E-3,.417E-4,0
STARLINK-31836,2024-088S,2026-07-04T14:52:20.148960,15.31748507,.0001715,53.1570,316.1510,79.0634,281.0560,0,U,59724,999,12159,.82696406E-3,.25423E-3,0
STARLINK-31820,2024-088T,2026-07-04T15:05:45.698496,15.31718483,.00014281,53.1596,316.2070,79.0611,281.0552,0,U,59725,999,12159,.12644283E-3,.3563E-4,0
STARLINK-31642,2024-088U,2026-07-04T18:20:24.774432,15.31721531,.00011741,53.1579,315.6275,81.0158,279.0976,0,U,59726,999,12161,.18443989E-3,.5366E-4,0
STARLINK-31827,2024-088V,2026-07-05T07:25:40.620288,15.31748977,.00010375,53.1600,313.3425,93.8337,266.2784,0,U,59727,999,12181,.36222595E-3,.10909E-3,0
SHIYAN-23 (SY-23),2024-089A,2026-07-02T17:51:09.610272,14.87067403,.0004978,97.7769,185.2046,130.1312,230.0341,0,U,59728,999,11615,.89577E-4,.75E-5,0
STARLINK-31472,2024-090A,2026-07-05T05:02:53.579904,15.27673185,.00015486,43.0029,239.7791,282.1498,77.9180,0,U,59730,999,12141,.11046374E-3,.2787E-4,0
STARLINK-31817,2024-090B,2026-07-04T12:55:41.254752,15.27586837,.00014744,43.0007,243.3420,259.6169,100.4516,0,U,59731,999,12131,.1704518E-3,.4432E-4,0
STARLINK-31833,2024-090D,2026-07-05T05:23:30.854688,15.27607340,.00016106,42.9994,239.8860,270.8719,89.1948,0,U,59733,999,12141,.41484091E-3,.1118E-3,0
STARLINK-31849,2024-090E,2026-07-05T03:34:05.536416,15.27595384,.00009019,42.9998,233.2575,279.7639,80.3111,0,U,59734,999,12148,.14109821E-3,.3624E-4,0
STARLINK-31661,2024-090F,2026-07-05T04:51:35.352864,15.27590544,.00017548,43.0015,232.8022,276.6084,83.4568,0,U,59735,999,12149,-.33122626E-4,-.1174E-4,0
STARLINK-31707,2024-090G,2026-07-05T03:23:26.119392,15.27588786,.00013754,43.0029,240.1260,274.7558,85.3137,0,U,59736,999,12140,.70577989E-4,.1681E-4,0
STARLINK-31821,2024-090H,2026-07-05T05:14:14.543232,15.27592176,.00014453,43.0018,239.8432,278.3063,81.7624,0,U,59737,999,12141,.12094296E-3,.3069E-4,0
STARLINK-31819,2024-090J,2026-07-05T05:06:50.397120,15.27596274,.00012007,43.0005,239.7972,226.4679,133.6073,0,U,59738,999,12141,.76811132E-4,.1853E-4,0
STARLINK-31726,2024-090K,2026-07-05T04:31:41.415456,15.27587172,.00009455,43.0009,239.6182,278.4247,81.6498,0,U,59739,999,12141,.52338474E-4,.1179E-4,0
STARLINK-31759,2024-090L,2026-07-04T20:15:13.158720,15.27579908,.00012041,42.9994,242.1878,274.1212,85.9502,0,U,59740,999,12135,.1584535E-3,.4101E-4,0
STARLINK-31818,2024-090M,2026-07-05T05:29:03.117984,15.27590638,.00011133,43.0006,239.9128,281.3936,78.6790,0,U,59741,999,12141,.87058349E-4,.2135E-4,0
STARLINK-31816,2024-090N,2026-07-05T04:15:14.402592,15.27592173,.00007261,42.9951,240.3663,87.9082,272.1852,0,U,59742,999,12138,.8491482E-4,.2076E-4,0
STARLINK-31809,2024-090P,2026-07-05T04:57:07.849440,15.27590050,.00016655,43.0005,232.8251,262.6505,97.4157,0,U,59743,999,12149,-.482482E-6,-.276E-5,0
STARLINK-31779,2024-090Q,2026-07-05T03:08:38.350752,15.27602483,.00006709,43.0016,240.0441,299.0990,60.9795,0,U,59744,999,12140,-.61751007E-4,-.1962E-4,0
STARLINK-31805,2024-090R,2026-07-04T20:35:21.666624,15.27583367,.00009294,43.0012,241.4342,278.1624,81.9122,0,U,59745,999,12136,.10481044E-3,.2624E-4,0
STARLINK-31681,2024-090S,2026-07-04T14:55:17.999040,15.27578164,.00011597,42.9983,236.1811,273.0700,87.0019,0,U,59746,999,12140,.25907098E-3,.6873E-4,0
STARLINK-31636,2024-090T,2026-07-05T04:46:28.724448,15.27595170,.00009163,43.0016,239.6922,279.5289,80.5459,0,U,59747,999,12141,.10278813E-3,.2569E-4,0
STARLINK-31640,2024-090U,2026-07-05T03:36:23.004864,15.27591128,.00016889,43.0022,240.1892,279.9951,80.0711,0,U,59748,999,12140,.78363239E-4,.1895E-4,0
STARLINK-31677,2024-090V,2026-07-05T04:00:26.698752,15.27588234,.00014777,43.0012,240.3119,270.1739,89.8943,0,U,59749,999,12139,.96604421E-4,.2398E-4,0
STARLINK-31783,2024-090W,2026-07-04T20:20:45.920544,15.27587794,.00013018,42.9994,242.2145,273.2739,86.7963,0,U,59750,999,12134,.90581923E-4,.2232E-4,0
STARLINK-31808,2024-090X,2026-07-04T20:29:46.203936,15.27620667,.0001548,42.9991,241.4054,265.3896,94.6779,0,U,59751,999,12135,.35640465E-3,.957E-4,0
STARLINK-31822,2024-090Y,2026-07-05T04:52:02.364096,15.27587678,.00012625,43.0027,239.7213,270.1415,89.9292,0,U,59752,999,12140,.85088131E-4,.2081E-4,0
STARLINK-11118 [DTC],2024-091B,2026-07-04T17:52:05.245824,15.69727052,.00006279,53.1591,349.5577,94.6197,265.4892,0,U,59754,999,12389,.24236658E-4,.2351E-4,0
STARLINK-11132 [DTC],2024-091C,2026-07-04T17:37:58.252800,15.69715653,.00006547,53.1598,349.4909,70.1522,289.9567,0,U,59755,999,12389,.21332746E-4,.1998E-4,0
STARLINK-11131 [DTC],2024-091D,2026-07-04T20:34:15.203424,15.69731071,.00015649,53.1569,348.8323,95.2339,264.8857,0,U,59756,999,12391,.31465539E-4,.3227E-4,0
STARLINK-11114 [DTC],2024-091E,2026-07-04T20:27:12.419712,15.69723732,.00014583,53.1594,348.8199,98.5937,261.5246,0,U,59757,999,12391,.24691341E-4,.2405E-4,0
STARLINK-11105 [DTC],2024-091F,2026-07-04T20:20:07.894176,15.69734246,.00009457,53.1592,348.7841,88.3414,271.7712,0,U,59758,999,12391,.28813658E-4,.2907E-4,0
STARLINK-11097 [DTC],2024-091G,2026-07-04T17:09:42.247584,15.69727899,.00011677,53.1593,349.3603,130.4929,229.6190,0,U,59759,999,12389,.18704971E-4,.1679E-4,0
STARLINK-11098 [DTC],2024-091H,2026-07-04T20:06:00.424224,15.69735881,.00007991,53.1577,348.6987,100.4995,259.6113,0,U,59760,999,12391,.3102885E-4,.3176E-4,0
STARLINK-11117 [DTC],2024-091J,2026-07-04T19:58:56.489664,15.69728441,.00005579,53.1600,348.6673,105.5365,254.5715,0,U,59761,999,12391,.24989445E-4,.2443E-4,0
STARLINK-11110 [DTC],2024-091K,2026-07-04T10:41:46.986144,15.69724007,.00006909,53.1593,350.5165,100.2856,259.8239,0,U,59762,999,12385,.11395934E-4,.793E-5,0
STARLINK-11104 [DTC],2024-091L,2026-07-04T21:16:29.302464,15.69732826,.0000853,53.1586,348.2858,99.1975,260.9140,0,U,59763,999,12392,.26065642E-4,.2573E-4,0
STARLINK-11111 [DTC],2024-091M,2026-07-05T06:00:04.999968,15.85845075,.00034208,53.1458,342.4263,280.9471,142.1868,0,U,59764,999,601,.11169595E-2,.287507E-2,0
STARLINK-11106 [DTC],2024-091N,2026-07-04T16:34:23.418048,15.69719353,.00012215,53.1591,349.1995,79.7776,280.3380,0,U,59765,999,12389,.28917467E-4,.2917E-4,0
STARLINK-31739,2024-091P,2026-07-05T01:06:50.855616,15.30205429,.00016031,53.1597,198.8451,86.6877,273.4308,0,U,59766,999,12101,.1109471E-3,.2928E-4,0
STARLINK-31828,2024-091Q,2026-07-05T01:23:16.181952,15.31713325,.00011898,53.1595,201.0388,79.5902,280.5233,0,U,59767,999,12098,.11169869E-3,.3104E-4,0
STARLINK-31826,2024-091R,2026-07-05T00:24:08.620416,15.49539504,.00084359,53.1511,195.0642,354.9513,5.1410,0,U,59768,999,12106,.18309001E-2,.103702E-2,0
STARLINK-31830,2024-091S,2026-07-05T01:38:09.085344,15.30221363,.00013848,53.1561,201.8117,63.0762,297.0380,0,U,59769,999,12097,.12384396E-4,.8E-7,0
STARLINK-31829,2024-091T,2026-07-05T01:24:28.900512,15.30199948,.00014785,53.1584,201.7566,81.1239,278.9929,0,U,59770,999,12097,.68666793E-4,.1675E-4,0
STARLINK-31786,2024-091U,2026-07-05T01:44:14.665344,15.30191306,.00009846,53.1591,201.8375,82.0979,278.0133,0,U,59771,999,12097,.18017793E-4,.175E-5,0
STARLINK-31835,2024-091V,2026-07-05T01:16:33.520800,15.31715168,.00010557,53.1595,201.0090,93.1390,266.9732,0,U,59772,999,12098,.19995434E-3,.5848E-4,0
COSMOS 2576,2024-092A,2026-07-02T17:15:24.567840,15.20138035,.0011276,97.4406,299.4723,323.1341,36.9118,0,U,59773,999,11874,.34831E-3,.7477E-4,0
